[{"OBJECT_NAME":"STARLINK-2622","OBJECT_ID":"2021-038H","EPOCH":"2025-10-15T09:49:30.133920","MEAN_MOTION":15.06409384,"ECCENTRICITY":0.00013638,"INCLINATION":53.0546,"RA_OF_ASC_NODE":293.8048,"ARG_OF_PERICENTER":87.1725,"MEAN_ANOMALY":272.942,"EPHEMERIS_TYPE":0,"CLASSIFICATION_TYPE":"U","NORAD_CAT_ID":48360,"ELEMENT_SET_NO":999,"REV_AT_EPOCH":24512,"BSTAR":0.00013450368,"MEAN_MOTION_DOT":1.723e-5,"MEAN_MOTION_DDOT":0},{"OBJECT_NAME":"STARLINK-2591","OBJECT_ID":"2021-038J","EPOCH":"2025-10-15T09:44:11.185728","MEAN_MOTION":15.06401912,"ECCENTRICITY":0.00016304,"INCLINATION":53.0546,"RA_OF_ASC_NODE":293.8206,"ARG_OF_PERICENTER":102.0709,"MEAN_ANOMALY":258.0463,"EPHEMERIS_TYPE":0,"CLASSIFICATION_TYPE":"U","NORAD_CAT_ID":48361,"ELEMENT_SET_NO":999,"REV_AT_EPOCH":24512,"BSTAR":7.0421485e-5,"MEAN_MOTION_DOT":7.68e-6,"MEAN_MOTION_DDOT":0},{"OBJECT_NAME":"STARLINK-2578","OBJECT_ID":"2021-038K","EPOCH":"2025-10-15T07:20:53.192544","MEAN_MOTION":15.06403542,"ECCENTRICITY":0.00016633,"INCLINATION":53.0546,"RA_OF_ASC_NODE":294.3563,"ARG_OF_PERICENTER":88.1967,"MEAN_ANOMALY":271.9213,"EPHEMERIS_TYPE":0,"CLASSIFICATION_TYPE":"U","NORAD_CAT_ID":48362,"ELEMENT_SET_NO":999,"REV_AT_EPOCH":24511,"BSTAR":-6.2294452e-5,"MEAN_MOTION_DOT":-1.209e-5,"MEAN_MOTION_DDOT":0},{"OBJECT_NAME":"STARLINK-2626","OBJECT_ID":"2021-038L","EPOCH":"2025-10-15T20:00:03.000384","MEAN_MOTION":15.58925783,"ECCENTRICITY":0.0003258,"INCLINATION":53.0549,"RA_OF_ASC_NODE":226.1978,"ARG_OF_PERICENTER":133.1494,"MEAN_ANOMALY":318.4648,"EPHEMERIS_TYPE":0,"CLASSIFICATION_TYPE":"U","NORAD_CAT_ID":48363,"ELEMENT_SET_NO":999,"REV_AT_EPOCH":585,"BSTAR":0.0019516,"MEAN_MOTION_DOT":0.00156771,"MEAN_MOTION_DDOT":0},{"OBJECT_NAME":"STARLINK-2611","OBJECT_ID":"2021-038M","EPOCH":"2025-10-15T17:24:00.000864","MEAN_MOTION":15.064,"ECCENTRICITY":0.0001401,"INCLINATION":53.0544,"RA_OF_ASC_NODE":287.5521,"ARG_OF_PERICENTER":86.9398,"MEAN_ANOMALY":273.1751,"EPHEMERIS_TYPE":0,"CLASSIFICATION_TYPE":"U","NORAD_CAT_ID":48364,"ELEMENT_SET_NO":999,"REV_AT_EPOCH":24524,"BSTAR":6.7766e-5,"MEAN_MOTION_DOT":7.28e-6,"MEAN_MOTION_DDOT":0},{"OBJECT_NAME":"STARLINK-2608","OBJECT_ID":"2021-038N","EPOCH":"2025-10-15T05:22:06.784896","MEAN_MOTION":15.06404631,"ECCENTRICITY":0.00016643,"INCLINATION":53.056,"RA_OF_ASC_NODE":289.6398,"ARG_OF_PERICENTER":96.4019,"MEAN_ANOMALY":263.7159,"EPHEMERIS_TYPE":0,"CLASSIFICATION_TYPE":"U","NORAD_CAT_ID":48365,"ELEMENT_SET_NO":999,"REV_AT_EPOCH":24517,"BSTAR":-8.348845e-6,"MEAN_MOTION_DOT":-4.06e-6,"MEAN_MOTION_DDOT":0},{"OBJECT_NAME":"STARLINK-2643","OBJECT_ID":"2021-038Q","EPOCH":"2025-10-15T09:45:30.842208","MEAN_MOTION":15.06399076,"ECCENTRICITY":0.00014726,"INCLINATION":53.0549,"RA_OF_ASC_NODE":283.8181,"ARG_OF_PERICENTER":84.1386,"MEAN_ANOMALY":275.9771,"EPHEMERIS_TYPE":0,"CLASSIFICATION_TYPE":"U","NORAD_CAT_ID":48367,"ELEMENT_SET_NO":999,"REV_AT_EPOCH":24526,"BSTAR":4.8281602e-5,"MEAN_MOTION_DOT":4.38e-6,"MEAN_MOTION_DDOT":0},{"OBJECT_NAME":"STARLINK-2623","OBJECT_ID":"2021-038R","EPOCH":"2025-10-15T07:38:09.000672","MEAN_MOTION":15.06419201,"ECCENTRICITY":0.0001489,"INCLINATION":53.0543,"RA_OF_ASC_NODE":284.4951,"ARG_OF_PERICENTER":82.1245,"MEAN_ANOMALY":277.9913,"EPHEMERIS_TYPE":0,"CLASSIFICATION_TYPE":"U","NORAD_CAT_ID":48368,"ELEMENT_SET_NO":999,"REV_AT_EPOCH":24525,"BSTAR":0.00026983608,"MEAN_MOTION_DOT":3.742e-5,"MEAN_MOTION_DDOT":0},{"OBJECT_NAME":"STARLINK-2621","OBJECT_ID":"2021-038T","EPOCH":"2025-10-15T06:23:49.213248","MEAN_MOTION":15.06379189,"ECCENTRICITY":0.00014266,"INCLINATION":53.0536,"RA_OF_ASC_NODE":284.4513,"ARG_OF_PERICENTER":104.133,"MEAN_ANOMALY":255.9817,"EPHEMERIS_TYPE":0,"CLASSIFICATION_TYPE":"U","NORAD_CAT_ID":48370,"ELEMENT_SET_NO":999,"REV_AT_EPOCH":24524,"BSTAR":0.00048132013,"MEAN_MOTION_DOT":6.891e-5,"MEAN_MOTION_DDOT":0},{"OBJECT_NAME":"STARLINK-2589","OBJECT_ID":"2021-038U","EPOCH":"2025-10-15T09:29:35.384352","MEAN_MOTION":15.0639536,"ECCENTRICITY":0.00014919,"INCLINATION":53.0544,"RA_OF_ASC_NODE":283.8691,"ARG_OF_PERICENTER":86.1147,"MEAN_ANOMALY":274.0012,"EPHEMERIS_TYPE":0,"CLASSIFICATION_TYPE":"U","NORAD_CAT_ID":48371,"ELEMENT_SET_NO":999,"REV_AT_EPOCH":24526,"BSTAR":8.1345129e-5,"MEAN_MOTION_DOT":9.3e-6,"MEAN_MOTION_DDOT":0},{"OBJECT_NAME":"STARLINK-2609","OBJECT_ID":"2021-038W","EPOCH":"2025-10-15T17:16:40.419264","MEAN_MOTION":15.06405033,"ECCENTRICITY":0.0001478,"INCLINATION":53.0552,"RA_OF_ASC_NODE":282.4108,"ARG_OF_PERICENTER":87.1956,"MEAN_ANOMALY":272.9202,"EPHEMERIS_TYPE":0,"CLASSIFICATION_TYPE":"U","NORAD_CAT_ID":48373,"ELEMENT_SET_NO":999,"REV_AT_EPOCH":24531,"BSTAR":0.00019354,"MEAN_MOTION_DOT":2.603e-5,"MEAN_MOTION_DDOT":0},{"OBJECT_NAME":"STARLINK-2604","OBJECT_ID":"2021-038X","EPOCH":"2025-10-15T16:23:39.130656","MEAN_MOTION":15.06399432,"ECCENTRICITY":0.0001467,"INCLINATION":53.0555,"RA_OF_ASC_NODE":282.9266,"ARG_OF_PERICENTER":97.9502,"MEAN_ANOMALY":262.1653,"EPHEMERIS_TYPE":0,"CLASSIFICATION_TYPE":"U","NORAD_CAT_ID":48374,"ELEMENT_SET_NO":999,"REV_AT_EPOCH":24530,"BSTAR":6.3486e-5,"MEAN_MOTION_DOT":6.64e-6,"MEAN_MOTION_DDOT":0},{"OBJECT_NAME":"STARLINK-2603","OBJECT_ID":"2021-038Y","EPOCH":"2025-10-15T17:06:03.214944","MEAN_MOTION":15.06397704,"ECCENTRICITY":0.0001459,"INCLINATION":53.0546,"RA_OF_ASC_NODE":282.4453,"ARG_OF_PERICENTER":87.9661,"MEAN_ANOMALY":272.1495,"EPHEMERIS_TYPE":0,"CLASSIFICATION_TYPE":"U","NORAD_CAT_ID":48375,"ELEMENT_SET_NO":999,"REV_AT_EPOCH":24531,"BSTAR":5.1664e-5,"MEAN_MOTION_DOT":4.88e-6,"MEAN_MOTION_DDOT":0},{"OBJECT_NAME":"STARLINK-2610","OBJECT_ID":"2021-038Z","EPOCH":"2025-10-15T17:00:45.269856","MEAN_MOTION":15.06390428,"ECCENTRICITY":0.000134,"INCLINATION":53.0543,"RA_OF_ASC_NODE":282.4589,"ARG_OF_PERICENTER":96.3258,"MEAN_ANOMALY":263.7883,"EPHEMERIS_TYPE":0,"CLASSIFICATION_TYPE":"U","NORAD_CAT_ID":48376,"ELEMENT_SET_NO":999,"REV_AT_EPOCH":24531,"BSTAR":7.5259e-5,"MEAN_MOTION_DOT":8.39e-6,"MEAN_MOTION_DDOT":0},{"OBJECT_NAME":"STARLINK-2499","OBJECT_ID":"2021-038AA","EPOCH":"2025-10-15T16:28:59.971008","MEAN_MOTION":15.06390372,"ECCENTRICITY":0.0001601,"INCLINATION":53.0561,"RA_OF_ASC_NODE":283.0653,"ARG_OF_PERICENTER":98.3887,"MEAN_ANOMALY":261.7283,"EPHEMERIS_TYPE":0,"CLASSIFICATION_TYPE":"U","NORAD_CAT_ID":48377,"ELEMENT_SET_NO":999,"REV_AT_EPOCH":24530,"BSTAR":-2.0921e-5,"MEAN_MOTION_DOT":-5.93e-6,"MEAN_MOTION_DDOT":0},{"OBJECT_NAME":"STARLINK-2526","OBJECT_ID":"2021-038AB","EPOCH":"2025-10-15T16:50:08.481984","MEAN_MOTION":15.06396016,"ECCENTRICITY":0.00014,"INCLINATION":53.0551,"RA_OF_ASC_NODE":282.4969,"ARG_OF_PERICENTER":92.0437,"MEAN_ANOMALY":268.0713,"EPHEMERIS_TYPE":0,"CLASSIFICATION_TYPE":"U","NORAD_CAT_ID":48378,"ELEMENT_SET_NO":999,"REV_AT_EPOCH":24531,"BSTAR":8.862e-5,"MEAN_MOTION_DOT":1.039e-5,"MEAN_MOTION_DDOT":0}]
