STARLINK-2622           
1 48360U 21038H   25288.40937655  .00001723  00000+0  13450-3 0  9997
2 48360  53.0546 293.8048 0001363  87.1725 272.9420 15.06409384245123
STARLINK-2591           
1 48361U 21038J   25288.40568502  .00000768  00000+0  70421-4 0  9999
2 48361  53.0546 293.8206 0001630 102.0709 258.0463 15.06401912245127
STARLINK-2578           
1 48362U 21038K   25288.30617121 -.00001209  00000+0 -62294-4 0  9993
2 48362  53.0546 294.3563 0001663  88.1967 271.9213 15.06403542245113
STARLINK-2626           
1 48363U 21038L   25288.83336806  .00156771  00000+0  19516-2 0  9990
2 48363  53.0549 226.1978 0003258 133.1494 318.4648 15.58925783  5855
STARLINK-2611           
1 48364U 21038M   25288.72500001  .00000728  00000+0  67766-4 0  9991
2 48364  53.0544 287.5521 0001401  86.9398 273.1751 15.06400000245246
STARLINK-2608           
1 48365U 21038N   25288.22368964 -.00000406  00000+0 -83488-5 0  9992
2 48365  53.0560 289.6398 0001664  96.4019 263.7159 15.06404631245170
STARLINK-2643           
1 48367U 21038Q   25288.40660697  .00000438  00000+0  48282-4 0  9997
2 48367  53.0549 283.8181 0001472  84.1386 275.9771 15.06399076245264
STARLINK-2623           
1 48368U 21038R   25288.31815973  .00003742  00000+0  26984-3 0  9992
2 48368  53.0543 284.4951 0001489  82.1245 277.9913 15.06419201245253
STARLINK-2621           
1 48370U 21038T   25288.26654182  .00006891  00000+0  48132-3 0  9999
2 48370  53.0536 284.4513 0001426 104.1330 255.9817 15.06379189245241
STARLINK-2589           
1 48371U 21038U   25288.39554843  .00000930  00000+0  81345-4 0  9999
2 48371  53.0544 283.8691 0001491  86.1147 274.0012 15.06395360245268
STARLINK-2609           
1 48373U 21038W   25288.71991226  .00002603  00000+0  19354-3 0  9996
2 48373  53.0552 282.4108 0001478  87.1956 272.9202 15.06405033245314
STARLINK-2604           
1 48374U 21038X   25288.68309179  .00000664  00000+0  63486-4 0  9994
2 48374  53.0555 282.9266 0001467  97.9502 262.1653 15.06399432245307
STARLINK-2603           
1 48375U 21038Y   25288.71253721  .00000488  00000+0  51664-4 0  9999
2 48375  53.0546 282.4453 0001459  87.9661 272.1495 15.06397704245313
STARLINK-2610           
1 48376U 21038Z   25288.70885729  .00000839  00000+0  75259-4 0  9994
2 48376  53.0543 282.4589 0001340  96.3258 263.7883 15.06390428245319
STARLINK-2499           
1 48377U 21038AA  25288.68680522 -.00000593  00000+0 -20921-4 0  9991
2 48377  53.0561 283.0653 0001601  98.3887 261.7283 15.06390372245308
STARLINK-2526           
1 48378U 21038AB  25288.70148706  .00001039  00000+0  88620-4 0  9992
2 48378  53.0551 282.4969 0001400  92.0437 268.0713 15.06396016245310
